169P/NEAT,e,11.2948,176.0858,218.0784,2.601552,0.2348850,0.76792758,139.8772,12/16.0/2019,2000,g  9.0,4.0
# From MPC 89012
170P/Christensen,e,10.1249,142.9190,225.6743,4.198065,0.1145857,0.30328400,219.8365,12/16.0/2019,2000,g 12.0,4.0
# From MPC102102
171P/Spahr,e,21.9338,101.6965,347.1275,3.557077,0.1469144,0.50177941,49.4138,12/16.0/2019,2000,g 13.5,4.0
# From MPEC 2019-VB6
172P/Yeung,e,11.2346,30.8956,209.3341,4.209637,0.1141135,0.20635896,114.9298,12/16.0/2019,2000,g 13.0,4.0
# From MPEC 2019-VB6
173P/Mueller,e,16.4972,100.4010,29.4137,5.699389,0.0724372,0.26051369,306.8682,12/16.0/2019,2000,g  7.5,4.0
# From MPC 92985
174P/Echeclus,e,4.3431,173.2808,162.8653,10.69808,0.0281673,0.45683014,47.8425,12/16.0/2019,2000,g  9.4,2.0
# From MPC114608
175P/Hergenrother,e,6.0773,123.5328,56.1964,3.427127,0.1553491,0.43208392,11.8374,12/16.0/2019,2000,g 14.0,4.0
# From MPC 89015
176P/LINEAR,e,0.2348,345.8828,35.1825,3.193219,0.1727273,0.19291742,174.4163,12/16.0/2019,2000,g 15.1,2.0
# From MPC 75723
177P/Barnard,e,31.3400,272.3633,60.1631,24.36689,0.0081942,0.95498077,39.8054,12/16.0/2019,2000,g 15.0,4.0
# From MPC105242
178P/Hug-Bell,e,11.0896,102.8745,297.7666,3.630731,0.1424665,0.48179756,329.5731,12/16.0/2019,2000,g 13.5,4.0
# From MPC 75723
179P/Jedicke,e,19.8971,115.5233,296.3855,5.945875,0.0679799,0.30591910,299.2925,12/16.0/2019,2000,g  2.5,8.0
# From MPC100284
180P/NEAT,e,16.8685,84.5549,94.9156,3.860443,0.1299417,0.35355585,190.4643,12/16.0/2019,2000,g 11.0,4.0
# From MPC 89012
181P/Shoemaker-Levy,e,17.4853,35.4114,336.2636,3.870281,0.1294465,0.70028326,262.2652,12/16.0/2019,2000,g 11.5,4.0
# From MPEC 2014-J10
182P/LONEOS,e,16.2427,72.7710,53.7780,2.957426,0.1937909,0.66093340,189.5383,12/16.0/2019,2000,g 18.0,4.0
# From MPC110085
183P/Korlevic-Juric,e,18.6836,5.5782,163.0266,4.511773,0.1028450,0.13987126,77.4967,12/16.0/2019,2000,g 12.5,2.0
# From MPC105242
184P/Lovas,e,4.5724,173.3180,186.4170,3.794849,0.1333252,0.55147804,317.9799,12/16.0/2019,2000,g 13.5,4.0
# From MPC109593
185P/Petriew,e,13.9955,214.0971,181.8943,3.099884,0.1805868,0.69881197,124.1467,12/16.0/2019,2000,g 15.0,4.0
# From MPC100284
186P/Garradd,e,28.4437,326.9303,283.9731,5.012535,0.0878250,0.12429465,19.7222,12/16.0/2019,2000,g  7.5,4.0
# From MPC104795
187P/LINEAR,e,13.6342,109.9223,132.4357,4.577105,0.1006509,0.15277093,57.8741,12/16.0/2019,2000,g  9.0,4.0
# From MPC106349
188P/LINEAR-Mueller,e,10.5170,358.9565,26.6191,4.377411,0.1076163,0.41494821,111.0902,12/16.0/2019,2000,g 11.5,4.0
# From MPC106349
189P/NEAT,e,20.0739,281.7409,16.2428,2.947451,0.1947755,0.58863470,167.8390,12/16.0/2019,2000,g 19.0,4.0
# From MPC 75724
190P/Mueller,e,2.1738,335.5664,50.3070,4.236663,0.1130233,0.52051634,152.3241,12/16.0/2019,2000,g 13.0,4.0
# From MPC 92277
191P/McNaught,e,8.8451,98.2428,283.8516,3.643909,0.1416944,0.38771509,294.9288,12/16.0/2019,2000,g 13.0,4.0
# From MPC 75724
192P/Shoemaker-Levy,e,24.5257,51.6543,312.8858,6.479008,0.0597642,0.77253561,263.0335,12/16.0/2019,2000,g 15.0,4.0
# From MPC 92277
193P/LINEAR-NEAT,e,10.6871,335.1951,8.2820,3.574728,0.1458276,0.39394162,269.7505,12/16.0/2019,2000,g 14.0,4.0
# From MPC 98566
194P/LINEAR,e,11.1561,351.7296,130.6763,3.988673,0.1237261,0.57683687,171.2360,12/16.0/2019,2000,g 16.0,4.0
# From MPC 75724
195P/Hill,e,36.3423,243.0922,249.5446,6.496162,0.0595277,0.31341634,237.7640,12/16.0/2019,2000,g  8.5,4.0
# From MPC 92985
196P/Tichy,e,19.3084,24.2218,12.3607,3.796305,0.1332485,0.42884606,220.1628,12/16.0/2019,2000,g 13.5,4.0
# From MPC 94676
197P/LINEAR,e,25.5527,66.3947,188.7257,2.867041,0.2030268,0.63000809,139.3008,12/16.0/2019,2000,g 16.5,2.0
# From NK 1596
198P/ODAS,e,1.3384,358.2493,69.2877,3.601422,0.1442092,0.44312359,52.9473,12/16.0/2019,2000,g  9.0,4.0
# From MPC 75725
199P/Shoemaker,e,24.9360,92.4012,191.5331,5.900413,0.0687671,0.50598188,268.5092,12/16.0/2019,2000,g 10.0,4.0
# From MPC118098
200P/Larsen,e,12.1052,234.8033,133.9914,4.935662,0.0898847,0.33195142,12.6207,12/16.0/2019,2000,g  9.0,4.0
# From MPC 93588
201P/LONEOS,e,5.7591,20.9809,40.1317,3.367994,0.1594583,0.63907335,276.0811,12/16.0/2019,2000,g 14.0,4.0
# From MPC103849
202P/Scotti,e,2.0327,186.0032,270.7140,3.942008,0.1259296,0.30144247,161.9280,12/16.0/2019,2000,g 13.5,4.0
# From MPEC 2019-TG9
203P/Korlevic,e,2.9733,290.3492,154.8876,4.670669,0.0976417,0.31492381,352.1792,12/16.0/2019,2000,g 14.5,2.0
# From MPC 98566
204P/LINEAR-NEAT,e,6.6314,108.8301,354.8258,3.636175,0.1421468,0.47870890,207.7201,12/16.0/2019,2000,g 14.0,4.0
# From MPC 98566
205P/Giacobini,e,15.2980,179.5986,154.1745,3.543380,0.1477670,0.56765183,247.7546,12/16.0/2019,2000,g 13.0,4.0
# From MPC 75725
206P/Barnard-Boattini,e,33.6410,202.4166,189.4126,3.488068,0.1512957,0.55150098,292.7553,12/16.0/2019,2000,g 19.0,4.0
# From MPC 75725
207P/NEAT,e,10.1492,200.0630,271.5521,3.866289,0.1296471,0.75965637,163.7837,12/16.0/2019,2000,g 16.0,4.0
# From MPC101100
208P/McMillan,e,4.4084,36.3780,310.3779,4.048132,0.1210102,0.37298920,152.6965,12/16.0/2019,2000,g 12.5,4.0
# From MPC 90771
209P/LINEAR,e,21.2580,62.7691,152.4921,2.960979,0.1934422,0.67328357,36.0190,12/16.0/2019,2000,g 17.0,2.0
# From MPC105242
210P/Christensen,e,10.2619,93.8357,345.9047,3.166426,0.1749242,0.83323753,340.0720,12/16.0/2019,2000,g 13.5,4.0
# From MPC 96868
211P/Hill,e,18.9190,117.1351,4.1229,3.550270,0.1473370,0.34186393,209.0200,12/16.0/2019,2000,g 12.5,4.0
# From MPC104795
212P/NEAT,e,22.6627,98.7038,14.5600,3.891236,0.1284023,0.58617156,152.8227,12/16.0/2019,2000,g 17.0,2.0
# From MPC114608
213P/Van Ness,e,10.3810,311.3014,5.5906,3.348419,0.1608587,0.40795138,130.6654,12/16.0/2019,2000,g 10.5,4.0
# From MPC 92986
214P/LINEAR,e,15.1887,348.2674,190.2980,3.615310,0.1433791,0.48617788,214.4303,12/16.0/2019,2000,g 13.0,4.0
# From MPC118098
215P/NEAT,e,10.5813,56.6906,262.0348,4.329458,0.1094092,0.16739454,3.0561,12/16.0/2019,2000,g 11.0,4.0
# From MPC100284
216P/LINEAR,e,9.0493,359.8266,151.3952,3.870668,0.1294271,0.44534278,167.6120,12/16.0/2019,2000,g 13.0,4.0
# From MPC108598
217P/LINEAR,e,12.8628,125.4689,246.8680,3.952491,0.1254289,0.68801989,110.6708,12/16.0/2019,2000,g 12.0,4.0
# From MPC105242
218P/LINEAR,e,2.7252,175.9815,59.7657,3.094849,0.1810276,0.62194819,307.0029,12/16.0/2019,2000,g 16.0,4.0
# From MPC100284
219P/LINEAR,e,11.5290,231.0098,107.3441,3.651621,0.1412458,0.35327994,145.2024,12/16.0/2019,2000,g 11.0,4.0
# From MPC105242
220P/McNaught,e,8.1281,150.1133,180.5724,3.114778,0.1792930,0.50175831,295.3254,12/16.0/2019,2000,g 15.0,4.0
# From MPC 93589
221P/LINEAR,e,11.4266,229.7342,40.0083,3.458454,0.1532431,0.49280734,247.6923,12/16.0/2019,2000,g 14.5,4.0
# From MPC 92277
222P/LINEAR,e,5.0942,6.8068,346.2234,2.899369,0.1996405,0.71431129,38.7188,12/16.0/2019,2000,g 20.0,4.0
# From MPEC 2019-VB6
223P/Skiff,e,27.0138,346.7820,37.8274,4.159177,0.1161965,0.41557775,37.5002,12/16.0/2019,2000,g 12.0,4.0
# From MPC 75727
224P/LINEAR-NEAT,e,13.3471,40.4214,16.8332,3.433681,0.1549045,0.40970653,202.2798,12/16.0/2019,2000,g 15.5,4.0
# From MPC 75727
225P/LINEAR,e,21.3426,14.1818,3.8761,3.651523,0.1412515,0.63740886,171.8361,12/16.0/2019,2000,g 18.0,4.0
# From MPC106349
226P/Pigott-LINEAR-Kowalski,e,44.0046,54.0064,341.0718,3.768139,0.1347453,0.52811182,161.4153,12/16.0/2019,2000,g 12.5,4.0
# From MPC102956
227P/Catalina-LINEAR,e,6.5140,49.6299,90.0378,3.575056,0.1458075,0.50409424,132.1080,12/16.0/2019,2000,g 16.5,2.0
# From MPEC 2017-X08
228P/LINEAR,e,7.9094,30.9919,115.3078,4.174872,0.1155419,0.17701953,350.0917,12/16.0/2019,2000,g 14.5,2.0
# From MPC106349
229P/Gibbs,e,26.0805,157.8950,224.0100,3.932351,0.1263938,0.37626208,118.7465,12/16.0/2019,2000,g 13.0,4.0
# From MPC110497
230P/LINEAR,e,15.4965,107.0540,313.9159,3.437226,0.1546649,0.55240053,233.0144,12/16.0/2019,2000,g 13.0,4.0
# From MPC114608
231P/LINEAR-NEAT,e,12.3341,133.0294,42.7795,4.016889,0.1224248,0.24753018,22.6016,12/16.0/2019,2000,g 14.5,2.0
# From MPC112394
232P/Hill,e,14.6304,56.0250,53.5196,4.484140,0.1037971,0.33446032,26.3206,12/16.0/2019,2000,g 11.5,4.0
# From MPC 92986
233P/La Sagra,e,11.2842,74.9264,27.0797,3.029929,0.1868768,0.41167817,305.6707,12/16.0/2019,2000,g 15.0,4.0
# From MPC110497
234P/LINEAR,e,11.5208,179.5792,357.4685,3.804482,0.1328192,0.25385837,123.5581,12/16.0/2019,2000,g 12.0,4.0
# From MPC110497
235P/LINEAR,e,8.8816,204.1425,333.6593,3.991606,0.1235898,0.31837350,78.9649,12/16.0/2019,2000,g 12.0,4.0
# From MPC107688
236P/LINEAR,e,16.3337,245.6641,119.2040,3.731929,0.1367112,0.50820444,103.3208,12/16.0/2019,2000,g 14.0,4.0
# From MPC109593
237P/LINEAR,e,14.0231,245.4203,25.1504,3.512374,0.1497280,0.43477361,173.6334,12/16.0/2019,2000,g 14.5,2.0
# From MPC107688
238P/Read,e,1.2646,51.6423,324.7463,3.162962,0.1752117,0.25235714,201.5626,12/16.0/2019,2000,g 14.5,4.0
# From MPC112394
239P/LINEAR,e,11.3053,255.9092,220.3996,4.470120,0.1042858,0.63088472,35.4403,12/16.0/2019,2000,g 17.5,2.0
# From MPC109593
240P/NEAT,e,23.5045,74.9250,352.0331,3.869275,0.1294970,0.44870728,75.0207,12/16.0/2019,2000,g 11.0,4.0
# From MPC 75729
241P/LINEAR,e,21.0335,305.5097,110.9246,4.952467,0.0894276,0.61071274,307.4980,12/16.0/2019,2000,g 13.5,4.0
# From MPC 81861
242P/Spahr,e,32.4798,180.5196,246.3253,5.475763,0.0769196,0.27782998,217.7951,12/16.0/2019,2000,g  8.0,4.0
# From MPC111774
243P/NEAT,e,7.6416,87.6572,283.5380,3.831844,0.1313991,0.35960359,62.6755,12/16.0/2019,2000,g 12.5,4.0
# From MPC 88331
244P/Scotti,e,2.2588,353.9929,92.8327,4.895942,0.0909808,0.19802454,262.9949,12/16.0/2019,2000,g  9.0,4.0
# From MPC111774
245P/WISE,e,21.1967,316.6606,316.7733,4.041403,0.1213126,0.45774943,81.9091,12/16.0/2019,2000,g 14.0,4.0
# From MPC114608
246P/NEAT,e,15.9871,78.7496,176.2193,4.016546,0.1224405,0.28680027,306.7995,12/16.0/2019,2000,g 10.5,4.0
# From MPC112394
247P/LINEAR,e,13.6603,54.0119,47.4657,3.970174,0.1245919,0.62479840,47.2107,12/16.0/2019,2000,g 16.5,2.0
# From MPC 75730
248P/Gibbs,e,6.3464,207.7470,209.9497,5.989556,0.0672376,0.63777889,218.5364,12/16.0/2019,2000,g 14.0,4.0
